[
    {
        "id_restaurant": "11295",
        "name": "Qui Plume la Lune - Jacky Ribault",
        "city": "Paris",
        "postal_code": "75011",
        "stars": "1",
        "image": "https://restaurant.michelin.fr/sites/mtpb2c_fr/files/styles/poi_detail_landscape/public/4TTyK98Sc_FiDXng.jpg?itok=TjqR4Jlp"
    },
    {
        "id_restaurant": "69375",
        "name": "Au Trou Gascon - Alain Dutournier",
        "city": "Paris",
        "postal_code": "75012",
        "stars": "1",
        "image": "https://restaurant.michelin.fr/sites/mtpb2c_fr/files/styles/poi_detail_landscape/public/Q1QyayIqHG21oZuA.jpg?itok=hBg7Uza0"
    },
    {
        "id_restaurant": "209577",
        "name": "Restaurant H",
        "city": "Paris",
        "postal_code": "75004",
        "stars": "1"
    },
    {
        "id_restaurant": "10889",
        "name": "Septime",
        "city": "Paris",
        "postal_code": "75011",
        "stars": "1"
    },
    {
        "id_restaurant": "2828",
        "name": "Le Chiberta - Stéphane Laruelle - Guy Savoy",
        "city": "Paris",
        "postal_code": "75008",
        "stars": "1",
        "image": "https://restaurant.michelin.fr/sites/mtpb2c_fr/files/styles/poi_detail_landscape/public/Chiberta.jpg?itok=nD0RVIqm"
    },
    {
        "id_restaurant": "6448",
        "name": "Les Bacchanales - Christophe Dufau",
        "city": "Vence",
        "postal_code": "06140",
        "stars": "1",
        "image": "https://restaurant.michelin.fr/sites/mtpb2c_fr/files/styles/poi_detail_landscape/public/DwQciamziBaj4tpw.jpg?itok=2NrsLEGo"
    },
    {
        "id_restaurant": "272593",
        "name": "MONTÉE",
        "city": "Paris",
        "postal_code": "75014",
        "stars": "1"
    },
    {
        "id_restaurant": "51875",
        "name": "L'Auberge Tiegezh",
        "city": "Guer",
        "postal_code": "56380",
        "stars": "1",
        "image": "https://restaurant.michelin.fr/sites/mtpb2c_fr/files/styles/poi_detail_landscape/public/XBQlyeJydMT3hCwg.jpg?itok=jS6ZhZC8"
    },
    {
        "id_restaurant": "8977",
        "name": "Shang Palace - Shangri-La Hotel, Paris",
        "city": "Paris",
        "postal_code": "75016",
        "stars": "1",
        "image": "https://restaurant.michelin.fr/sites/mtpb2c_fr/files/styles/poi_detail_landscape/public/JtTkGCY6PRHVwa2Q.jpg?itok=IpR9f7kx"
    },
    {
        "id_restaurant": "25901",
        "name": "Hostellerie de l'Abbaye de la Celle",
        "city": "La Celle",
        "postal_code": "83170",
        "stars": "1",
        "image": "https://restaurant.michelin.fr/sites/mtpb2c_fr/files/styles/poi_detail_landscape/public/gzSfWObGajS9I9qw.jpg?itok=Bw-tlqz-"
    },
    {
        "id_restaurant": "276169",
        "name": "Ken Kawasaki",
        "city": "Paris",
        "postal_code": "75018",
        "stars": "1"
    },
    {
        "id_restaurant": "204609",
        "name": "Le Castellaras",
        "city": "Fayence",
        "postal_code": "83440",
        "stars": "1",
        "image": "https://restaurant.michelin.fr/sites/mtpb2c_fr/files/styles/poi_detail_landscape/public/rCRw6omX0v9WkwYA.jpg?itok=lb3AxeFa"
    },
    {
        "id_restaurant": "7715",
        "name": "Terre Mer",
        "city": "Auray",
        "postal_code": "56400",
        "stars": "1",
        "image": "https://restaurant.michelin.fr/sites/mtpb2c_fr/files/styles/poi_detail_landscape/public/q5SYKNAJ5Cf6d7Zg.jpg?itok=zoX2ZA31"
    },
    {
        "id_restaurant": "71542",
        "name": "Au Crocodile",
        "city": "Strasbourg",
        "postal_code": "67000",
        "stars": "1",
        "image": "https://restaurant.michelin.fr/sites/mtpb2c_fr/files/styles/poi_detail_landscape/public/Au%20crocodile%205.jpg?itok=Ahxwvo5h"
    },
    {
        "id_restaurant": "57531",
        "name": "La Bastide de Moustiers",
        "city": "Moustiers-Sainte-Marie",
        "postal_code": "04360",
        "stars": "1",
        "image": "https://restaurant.michelin.fr/sites/mtpb2c_fr/files/styles/poi_detail_landscape/public/Bastide%20de%20Moustiers%20-%20ext%2B-%C2%ABrieur%20chemin%20-%20%28c%29PierreMonetta.jpg?itok=8GW_bPZW"
    },
    {
        "id_restaurant": "330375",
        "name": "Le Village",
        "city": "Marly-le-Roi",
        "postal_code": "78160",
        "stars": "1",
        "image": "https://restaurant.michelin.fr/sites/mtpb2c_fr/files/styles/poi_detail_landscape/public/WpQgmrHMdJblSe2w.jpg?itok=Dx7lm4Vz"
    },
    {
        "id_restaurant": "2975",
        "name": "La Table du Gourmet",
        "city": "Riquewihr",
        "postal_code": "68340",
        "stars": "1",
        "image": "https://restaurant.michelin.fr/sites/mtpb2c_fr/files/styles/poi_detail_landscape/public/uCShWwokLpkghVkA.jpg?itok=62IiBZmf"
    },
    {
        "id_restaurant": "5935",
        "name": "Le Grand Cerf",
        "city": "Villers-Allerand",
        "postal_code": "51500",
        "stars": "1",
        "image": "https://restaurant.michelin.fr/sites/mtpb2c_fr/files/styles/poi_detail_landscape/public/rAQzWbNihA3-bvdw.jpg?itok=5d1Yoe-F"
    },
    {
        "id_restaurant": "6765",
        "name": "L'Auberge de la Diligence",
        "city": "Loiré",
        "postal_code": "49440",
        "stars": "1",
        "image": "https://restaurant.michelin.fr/sites/mtpb2c_fr/files/styles/poi_detail_landscape/public/z0TtePYwR-3fW1HQ.jpg?itok=q9UR-1Le"
    },
    {
        "id_restaurant": "31008",
        "name": "Alcyone",
        "city": "Marseille",
        "postal_code": "13002",
        "stars": "1",
        "image": "https://restaurant.michelin.fr/sites/mtpb2c_fr/files/styles/poi_detail_landscape/public/Alcyone.jpg?itok=rW19wGjy"
    },
    {
        "id_restaurant": "6986",
        "name": "Alexandre - Michel Kayser",
        "city": "Garons",
        "postal_code": "30128",
        "stars": "2",
        "image": "https://restaurant.michelin.fr/sites/mtpb2c_fr/files/styles/poi_detail_landscape/public/S9SwePbm8QkmknvQ.jpg?itok=Rka3dA6G"
    },
    {
        "id_restaurant": "277471",
        "name": "Alain Llorca",
        "city": "La Colle-sur-Loup",
        "postal_code": "06480",
        "stars": "1",
        "image": "https://restaurant.michelin.fr/sites/mtpb2c_fr/files/styles/poi_detail_landscape/public/Alain-Llorca-restaurant-e1472714552931-min.jpg?itok=mRXKmyvc"
    },
    {
        "id_restaurant": "287357",
        "name": "La Palme d'Or",
        "city": "Cannes",
        "postal_code": "06400",
        "stars": "2",
        "image": "https://restaurant.michelin.fr/sites/mtpb2c_fr/files/styles/poi_detail_landscape/public/S9QNyDDYqAAKXbHg.jpg?itok=EBqQKVgW"
    },
    {
        "id_restaurant": "9611",
        "name": "Le Radio",
        "city": "Chamalières",
        "postal_code": "63400",
        "stars": "1",
        "image": "https://restaurant.michelin.fr/sites/mtpb2c_fr/files/styles/poi_detail_landscape/public/8ed8w4OER-uQO29XYp4WkA.jpg?itok=4B3P0T9Z"
    },
    {
        "id_restaurant": "77626",
        "name": "Alliance",
        "city": "Paris",
        "postal_code": "75005",
        "stars": "1",
        "image": "https://restaurant.michelin.fr/sites/mtpb2c_fr/files/styles/poi_detail_landscape/public/9fSymZDBF8DetJ0Q.jpg?itok=XYwVwA8r"
    },
    {
        "id_restaurant": "269931",
        "name": "Les Jardins de L'Espadon - Ritz Paris",
        "city": "Paris",
        "postal_code": "75001",
        "stars": "1",
        "image": "https://restaurant.michelin.fr/sites/mtpb2c_fr/files/styles/poi_detail_landscape/public/A%20AJOUTER%20%281%29.jpg?itok=OMWs_g6u"
    },
    {
        "id_restaurant": "10427",
        "name": "Auberge les Morainières",
        "city": "Jongieux",
        "postal_code": "73170",
        "stars": "2",
        "image": "https://restaurant.michelin.fr/sites/mtpb2c_fr/files/styles/poi_detail_landscape/public/q0QZyMz_VN-Iuheg.jpg?itok=gkBxFOFl"
    },
    {
        "id_restaurant": "3997",
        "name": "Têtedoie - Christian Têtedoie",
        "city": "Lyon",
        "postal_code": "69005",
        "stars": "1",
        "image": "https://restaurant.michelin.fr/sites/mtpb2c_fr/files/styles/poi_detail_landscape/public/Tetedoie_Lyon_Photo6.jpg?itok=zHST346I"
    },
    {
        "id_restaurant": "1226",
        "name": "Le Figuier de Saint-Esprit",
        "city": "Antibes",
        "postal_code": "06600",
        "stars": "1",
        "image": "https://restaurant.michelin.fr/sites/mtpb2c_fr/files/styles/poi_detail_landscape/public/204250_2_0.jpg?itok=vWs1rDr_"
    },
    {
        "id_restaurant": "2755",
        "name": "Auberge de Clochemerle - Romain Barthe",
        "city": "Vaux-en-Beaujolais",
        "postal_code": "69460",
        "stars": "1",
        "image": "https://restaurant.michelin.fr/sites/mtpb2c_fr/files/styles/poi_detail_landscape/public/Clochemerle3.jpg?itok=CrwPaxaO"
    },
    {
        "id_restaurant": "953",
        "name": "La Bonne Etape",
        "city": "Château-Arnoux-Saint-Auban",
        "postal_code": "04160",
        "stars": "1",
        "image": "https://restaurant.michelin.fr/sites/mtpb2c_fr/files/styles/poi_detail_landscape/public/oLCwY-hXTzyJmItHXyVkYA.jpg?itok=-BG-g_Rr"
    },
    {
        "id_restaurant": "250",
        "name": "Lasserre",
        "city": "Paris",
        "postal_code": "75008",
        "stars": "1",
        "image": "https://restaurant.michelin.fr/sites/mtpb2c_fr/files/styles/poi_detail_landscape/public/VEQUylIVHsofv7og.jpg?itok=v17Dntuz"
    },
    {
        "id_restaurant": "3018",
        "name": "Domaine d'Auriac",
        "city": "Carcassonne",
        "postal_code": "11000",
        "stars": "1",
        "image": "https://restaurant.michelin.fr/sites/mtpb2c_fr/files/styles/poi_detail_landscape/public/-OkJXZEsQuCHiPyQbYA89A.jpg?itok=nlQXXWyO"
    },
    {
        "id_restaurant": "53046",
        "name": "Sur Mesure  par Thierry Marx - Mandarin Oriental, Paris",
        "city": "Paris",
        "postal_code": "75001",
        "stars": "2",
        "image": "https://restaurant.michelin.fr/sites/mtpb2c_fr/files/styles/poi_detail_landscape/public/1_250.jpg?itok=iIbPrYCj"
    },
    {
        "id_restaurant": "5609",
        "name": "La Chapelle Saint Martin",
        "city": "Nieul",
        "postal_code": "87510",
        "stars": "1",
        "image": "https://restaurant.michelin.fr/sites/mtpb2c_fr/files/styles/poi_detail_landscape/public/NzTSe7rH7KSY3heg.jpg?itok=EBsY72XX"
    },
    {
        "id_restaurant": "3304",
        "name": "Loiseau des Vignes",
        "city": "Beaune",
        "postal_code": "21200",
        "stars": "1",
        "image": "https://restaurant.michelin.fr/sites/mtpb2c_fr/files/styles/poi_detail_landscape/public/Loiseudesvignes.jpg?itok=5Pt6D9hn"
    },
    {
        "id_restaurant": "566",
        "name": "L'Almandin",
        "city": "Saint-Cyprien",
        "postal_code": "66750",
        "stars": "1",
        "image": "https://restaurant.michelin.fr/sites/mtpb2c_fr/files/styles/poi_detail_landscape/public/christophe-schmitt-almandin.jpg?itok=W_vw-SOD"
    },
    {
        "id_restaurant": "275457",
        "name": "Emporio Armani Ristorante",
        "city": "Paris",
        "postal_code": "75006",
        "stars": "1",
        "image": "https://restaurant.michelin.fr/sites/mtpb2c_fr/files/styles/poi_detail_landscape/public/Georgio%20Armani%20Caffe2365-min.jpg?itok=pdDF1KwE"
    },
    {
        "id_restaurant": "8628",
        "name": "Le Park 45",
        "city": "Cannes",
        "postal_code": "06400",
        "stars": "1"
    },
    {
        "id_restaurant": "31795",
        "name": "L'Auberge du Vert Mont",
        "city": "Boeschepe",
        "postal_code": "59299",
        "stars": "1"
    },
    {
        "id_restaurant": "11050",
        "name": "Le Cloître",
        "city": "Mane",
        "postal_code": "04300",
        "stars": "1",
        "image": "https://restaurant.michelin.fr/sites/mtpb2c_fr/files/styles/poi_detail_landscape/public/OCRDKHzIwlMKgGBQ.jpg?itok=7RwDc6-J"
    },
    {
        "id_restaurant": "205419",
        "name": "La Dame de Pic - Anne-Sophie PIC - Paris",
        "city": "Paris",
        "postal_code": "75001",
        "stars": "1",
        "image": "https://restaurant.michelin.fr/sites/mtpb2c_fr/files/styles/poi_detail_landscape/public/SeQ_2HWrU12JJiWw.jpg?itok=g0ShzyLw"
    },
    {
        "id_restaurant": "2579",
        "name": "L'Auberge de la Charme",
        "city": "Prenois",
        "postal_code": "21370",
        "stars": "1",
        "image": "https://restaurant.michelin.fr/sites/mtpb2c_fr/files/styles/poi_detail_landscape/public/1609_Reportage_Charme77-min.jpg?itok=841rXTx1"
    },
    {
        "id_restaurant": "291883",
        "name": "La Table de l'Alpaga",
        "city": "Megève",
        "postal_code": "74120",
        "stars": "1",
        "image": "https://restaurant.michelin.fr/sites/mtpb2c_fr/files/styles/poi_detail_landscape/public/AM2A6561.jpg?itok=YIzro83M"
    },
    {
        "id_restaurant": "38822",
        "name": "Paloma",
        "city": "Mougins",
        "postal_code": "06250",
        "stars": "2",
        "image": "https://restaurant.michelin.fr/sites/mtpb2c_fr/files/styles/poi_detail_landscape/public/Bar%20de%20Ligne%20aux%20C%C3%A8pes-JUIN%202017.jpg?itok=OzrFDktc"
    },
    {
        "id_restaurant": "201032",
        "name": "Le 1920",
        "city": "Megève",
        "postal_code": "74120",
        "stars": "2",
        "image": "https://restaurant.michelin.fr/sites/mtpb2c_fr/files/styles/poi_detail_landscape/public/MVE_031.jpg?itok=HtN4BIjp"
    },
    {
        "id_restaurant": "4904",
        "name": "Hostellerie de Plaisance",
        "city": "Saint-Émilion",
        "postal_code": "33330",
        "stars": "2",
        "image": "https://restaurant.michelin.fr/sites/mtpb2c_fr/files/styles/poi_detail_landscape/public/1-min-min.jpg?itok=tWz3iZUP"
    },
    {
        "id_restaurant": "27058",
        "name": "Initial",
        "city": "Caen",
        "postal_code": "14000",
        "stars": "1",
        "image": "https://restaurant.michelin.fr/sites/mtpb2c_fr/files/styles/poi_detail_landscape/public/NxSnmpldEUlpJcYA.jpg?itok=Y5rK1bIe"
    },
    {
        "id_restaurant": "16363",
        "name": "Chez Michèle",
        "city": "Languimberg",
        "postal_code": "57810",
        "stars": "1",
        "image": "https://restaurant.michelin.fr/sites/mtpb2c_fr/files/styles/poi_detail_landscape/public/0nl5XQewSumid-TFOFPSqA.jpg?itok=-x9dAgvb"
    },
    {
        "id_restaurant": "36884",
        "name": "La Table d'Eugène",
        "city": "Paris",
        "postal_code": "75018",
        "stars": "1",
        "image": "https://restaurant.michelin.fr/sites/mtpb2c_fr/files/styles/poi_detail_landscape/public/QqQWaRrPnovQ2L-g.jpg?itok=Xl7qFvEk"
    },
    {
        "id_restaurant": "60859",
        "name": "Nakatani",
        "city": "Paris",
        "postal_code": "75007",
        "stars": "1",
        "image": "https://restaurant.michelin.fr/sites/mtpb2c_fr/files/styles/poi_detail_landscape/public/xISJCJ06RGnba80g.jpg?itok=dV0IyUL5"
    },
    {
        "id_restaurant": "7872",
        "name": "Le Pavillon des Boulevards - Denis Franc",
        "city": "Bordeaux",
        "postal_code": "33000",
        "stars": "1",
        "image": "https://restaurant.michelin.fr/sites/mtpb2c_fr/files/styles/poi_detail_landscape/public/Le-Pavillon-de-Boulevards_Bordeaux_4.jpg?itok=H2pYW0oM"
    },
    {
        "id_restaurant": "15068",
        "name": "Au Vieux Couvent - Alexis Albrecht",
        "city": "Rhinau",
        "postal_code": "67860",
        "stars": "1",
        "image": "https://restaurant.michelin.fr/sites/mtpb2c_fr/files/styles/poi_detail_landscape/public/NnQuW0IigcPaXPqw.jpg?itok=Sq0YT7ow"
    },
    {
        "id_restaurant": "30379",
        "name": "Jin",
        "city": "Paris",
        "postal_code": "75001",
        "stars": "1",
        "image": "https://restaurant.michelin.fr/sites/mtpb2c_fr/files/styles/poi_detail_landscape/public/JINcomptoir1-min.jpg?itok=tcSQc8NK"
    },
    {
        "id_restaurant": "3806",
        "name": "L'Assiette Champenoise",
        "city": "Tinqueux",
        "postal_code": "51430",
        "stars": "3",
        "image": "https://restaurant.michelin.fr/sites/mtpb2c_fr/files/styles/poi_detail_landscape/public/image%20pple%26.jpg?itok=nvKBrmQl"
    },
    {
        "id_restaurant": "2934",
        "name": "Auberge du Bon Laboureur",
        "city": "Chenonceaux",
        "postal_code": "37150",
        "stars": "1",
        "image": "https://restaurant.michelin.fr/sites/mtpb2c_fr/files/styles/poi_detail_landscape/public/PWbP-WcTQKOULjq4u8YrXg.jpg?itok=5vxP4sxe"
    },
    {
        "id_restaurant": "75043",
        "name": "Prairial",
        "city": "Lyon",
        "postal_code": "69001",
        "stars": "1",
        "image": "https://restaurant.michelin.fr/sites/mtpb2c_fr/files/styles/poi_detail_landscape/public/prairial%20mai%202017-17.jpg?itok=NQ8RkhTX"
    },
    {
        "id_restaurant": "62590",
        "name": "Le Pont de l'Ouysse",
        "city": "Lacave",
        "postal_code": "46200",
        "stars": "1",
        "image": "https://restaurant.michelin.fr/sites/mtpb2c_fr/files/styles/poi_detail_landscape/public/3971_1_0.jpg?itok=yKHJCF_T"
    },
    {
        "id_restaurant": "8685",
        "name": "La Villa Archange",
        "city": "Le Cannet",
        "postal_code": "06110",
        "stars": "2",
        "image": "https://restaurant.michelin.fr/sites/mtpb2c_fr/files/styles/poi_detail_landscape/public/XCRuoZpTRxuXvS8drwnDBA.jpg?itok=TbA4yS4C"
    },
    {
        "id_restaurant": "21632",
        "name": "L'Essentiel",
        "city": "Deauville",
        "postal_code": "14800",
        "stars": "1",
        "image": "https://restaurant.michelin.fr/sites/mtpb2c_fr/files/styles/poi_detail_landscape/public/X-Qsizcm8-awNLRw.jpg?itok=xRSxtBQx"
    },
    {
        "id_restaurant": "269585",
        "name": "La Scène Thélème",
        "city": "Paris",
        "postal_code": "75017",
        "stars": "1",
        "image": "https://restaurant.michelin.fr/sites/mtpb2c_fr/files/styles/poi_detail_landscape/public/Sc%C3%A8ne%20Th%C3%A9l%C3%A8me%202.jpg?itok=anQ7iLE-"
    },
    {
        "id_restaurant": "9350",
        "name": "Le Petit Nice Passedat - Gérald Passedat",
        "city": "Marseille",
        "postal_code": "13007",
        "stars": "3",
        "image": "https://restaurant.michelin.fr/sites/mtpb2c_fr/files/styles/poi_detail_landscape/public/Le-Petit-Nice-Passedat-front-view-min.jpg?itok=7qznzBxv"
    },
    {
        "id_restaurant": "38155",
        "name": "Flaveur",
        "city": "Nice",
        "postal_code": "06000",
        "stars": "2",
        "image": "https://restaurant.michelin.fr/sites/mtpb2c_fr/files/styles/poi_detail_landscape/public/_DSC1840.jpg?itok=LQBnYNkv"
    },
    {
        "id_restaurant": "269053",
        "name": "Ze Kitchen Galerie",
        "city": "Paris",
        "postal_code": "75006",
        "stars": "1",
        "image": "https://restaurant.michelin.fr/sites/mtpb2c_fr/files/styles/poi_detail_landscape/public/5954_1_1.jpg?itok=1ZVtuaQA"
    },
    {
        "id_restaurant": "5109",
        "name": "Le Magasin aux Vivres",
        "city": "Metz",
        "postal_code": "57000",
        "stars": "1",
        "image": "https://restaurant.michelin.fr/sites/mtpb2c_fr/files/styles/poi_detail_landscape/public/VBTNu_peZEZODGOA.jpg?itok=q23akGE6"
    },
    {
        "id_restaurant": "15802",
        "name": "Cobéa - Philippe Bélissent",
        "city": "Paris",
        "postal_code": "75014",
        "stars": "1",
        "image": "https://restaurant.michelin.fr/sites/mtpb2c_fr/files/styles/poi_detail_landscape/public/Cobea.jpg?itok=dkYqUxdE"
    },
    {
        "id_restaurant": "18188",
        "name": "Le Pressoir",
        "city": "Saint-Avé",
        "postal_code": "56890",
        "stars": "1",
        "image": "https://restaurant.michelin.fr/sites/mtpb2c_fr/files/styles/poi_detail_landscape/public/jdRSWO99CzBANH3w.jpg?itok=VSl-Zhf8"
    },
    {
        "id_restaurant": "7133",
        "name": "Le Moulin du Roc",
        "city": "Champagnac-de-Belair",
        "postal_code": "24530",
        "stars": "1",
        "image": "https://restaurant.michelin.fr/sites/mtpb2c_fr/files/styles/poi_detail_landscape/public/MoulinduRocCochon.jpg?itok=G6vOFCcT"
    },
    {
        "id_restaurant": "23087",
        "name": "Frédéric Simonin",
        "city": "Paris",
        "postal_code": "75017",
        "stars": "1",
        "image": "https://restaurant.michelin.fr/sites/mtpb2c_fr/files/styles/poi_detail_landscape/public/27Rs6LMIPamOqLBg_1.jpg?itok=n4NP9Vwx"
    },
    {
        "id_restaurant": "65607",
        "name": "Le Château de Sable",
        "city": "Porspoder",
        "postal_code": "29840",
        "stars": "1",
        "image": "https://restaurant.michelin.fr/sites/mtpb2c_fr/files/styles/poi_detail_landscape/public/1MQ9mNR08a0tHLKQ.jpg?itok=tra_8dml"
    },
    {
        "id_restaurant": "4961",
        "name": "Ar Men Du",
        "city": "Névez",
        "postal_code": "29920",
        "stars": "1",
        "image": "https://restaurant.michelin.fr/sites/mtpb2c_fr/files/styles/poi_detail_landscape/public/Ar%20Men%20Du.jpg?itok=VGmmdE_y"
    },
    {
        "id_restaurant": "529",
        "name": "Le Puits du Trésor",
        "city": "Lastours",
        "postal_code": "11600",
        "stars": "1",
        "image": "https://restaurant.michelin.fr/sites/mtpb2c_fr/files/styles/poi_detail_landscape/public/LmTiyfTzcb6wrUyA.jpg?itok=9rwB8iiY"
    },
    {
        "id_restaurant": "4294",
        "name": "La Maison dans le Parc",
        "city": "Nancy",
        "postal_code": "54000",
        "stars": "1",
        "image": "https://restaurant.michelin.fr/sites/mtpb2c_fr/files/styles/poi_detail_landscape/public/03QZuSCeQZCXYpAkfik3dg.jpg?itok=pQ4b0P_f"
    },
    {
        "id_restaurant": "3552",
        "name": "Maison Lameloise",
        "city": "Chagny",
        "postal_code": "71150",
        "stars": "3",
        "image": "https://restaurant.michelin.fr/sites/mtpb2c_fr/files/styles/poi_detail_landscape/public/0LTkWgJ3GqtL3tpw.jpg?itok=hjEPSsTd"
    },
    {
        "id_restaurant": "2185",
        "name": "Antoine - Thibault Sombardier",
        "city": "Paris",
        "postal_code": "75116",
        "stars": "1",
        "image": "https://restaurant.michelin.fr/sites/mtpb2c_fr/files/styles/poi_detail_landscape/public/3S5A2716.jpg?itok=p7sJt2sv"
    },
    {
        "id_restaurant": "5497",
        "name": "La Scène - Prince de Galles",
        "city": "Paris",
        "postal_code": "75008",
        "stars": "1",
        "image": "https://restaurant.michelin.fr/sites/mtpb2c_fr/files/styles/poi_detail_landscape/public/LIEU%20JAUNE%20DE%20%20LIGNE%20%281%29.jpg?itok=hNVOOYT5"
    },
    {
        "id_restaurant": "682",
        "name": "L'Oasis - Stéphane Raimbault",
        "city": "La Napoule",
        "postal_code": "06210",
        "stars": "2",
        "image": "https://restaurant.michelin.fr/sites/mtpb2c_fr/files/styles/poi_detail_landscape/public/p-SNy5aLyd6rNWJA.jpg?itok=-hosjZtg"
    },
    {
        "id_restaurant": "6018",
        "name": "Le Vieux Logis",
        "city": "Trémolat",
        "postal_code": "24510",
        "stars": "1",
        "image": "https://restaurant.michelin.fr/sites/mtpb2c_fr/files/styles/poi_detail_landscape/public/IkTHGBKc28Zjk_MA.jpg?itok=_wmeqAx3"
    },
    {
        "id_restaurant": "44919",
        "name": "Miraflores",
        "city": "Lyon",
        "postal_code": "69006",
        "stars": "1",
        "image": "https://restaurant.michelin.fr/sites/mtpb2c_fr/files/styles/poi_detail_landscape/public/8AT2i2pfDVN5Ebxw.jpg?itok=ulo6zARl"
    },
    {
        "id_restaurant": "42187",
        "name": "La Promenade",
        "city": "Verfeil",
        "postal_code": "31590",
        "stars": "1",
        "image": "https://restaurant.michelin.fr/sites/mtpb2c_fr/files/styles/poi_detail_landscape/public/ypSGCtiCYnOWs6eA.jpg?itok=OHpePX-c"
    },
    {
        "id_restaurant": "132",
        "name": "Le Relais des Moines",
        "city": "Les Arcs",
        "postal_code": "83460",
        "stars": "1",
        "image": "https://restaurant.michelin.fr/sites/mtpb2c_fr/files/styles/poi_detail_landscape/public/05%20SANJOU%20TERRASSE%2001%20%282%29.jpg?itok=Ne5Kgoe9"
    },
    {
        "id_restaurant": "32584",
        "name": "L'Auberge de la Pomme",
        "city": "Les Damps",
        "postal_code": "27340",
        "stars": "1",
        "image": "https://restaurant.michelin.fr/sites/mtpb2c_fr/files/styles/poi_detail_landscape/public/w3RLmSH4N1M6Npzg.jpg?itok=QUS4OD4v"
    },
    {
        "id_restaurant": "14529",
        "name": "La Chassagnette",
        "city": "Arles",
        "postal_code": "13200",
        "stars": "1",
        "image": "https://restaurant.michelin.fr/sites/mtpb2c_fr/files/styles/poi_detail_landscape/public/La%20Chassagnette3.jpg?itok=jQgtnKtR"
    },
    {
        "id_restaurant": "416",
        "name": "Hostellerie Bérard & spa",
        "city": "La Cadière-d'Azur",
        "postal_code": "83740",
        "stars": "1",
        "image": "https://restaurant.michelin.fr/sites/mtpb2c_fr/files/styles/poi_detail_landscape/public/LTRa-0hOmBKPFnEQ.jpg?itok=WOyWlPZi"
    },
    {
        "id_restaurant": "2788",
        "name": "La Villa Madie - Dimitri Droisneau",
        "city": "Cassis",
        "postal_code": "13260",
        "stars": "2",
        "image": "https://restaurant.michelin.fr/sites/mtpb2c_fr/files/styles/poi_detail_landscape/public/_qRPqP2gkVrGc2JQ.jpg?itok=jgxO2XMz"
    },
    {
        "id_restaurant": "310829",
        "name": "Dominique Bouchet",
        "city": "Paris",
        "postal_code": "75008",
        "stars": "1",
        "image": "https://restaurant.michelin.fr/sites/mtpb2c_fr/files/styles/poi_detail_landscape/public/uTQUSrSUN3FHQ2CQ.jpg?itok=bRz6uQG3"
    },
    {
        "id_restaurant": "28558",
        "name": "Le Gourmet de Sèze - Bernard Mariller",
        "city": "Lyon",
        "postal_code": "69006",
        "stars": "1",
        "image": "https://restaurant.michelin.fr/sites/mtpb2c_fr/files/styles/poi_detail_landscape/public/Gourmet%20de%20Seze.jpg?itok=jjlPva_l"
    },
    {
        "id_restaurant": "200546",
        "name": "Sylvestre - Hôtel Thoumieux",
        "city": "Paris",
        "postal_code": "75007",
        "stars": "2",
        "image": "https://restaurant.michelin.fr/sites/mtpb2c_fr/files/styles/poi_detail_landscape/public/Biblio-2-min.jpg?itok=XWAY7YWC"
    },
    {
        "id_restaurant": "78423",
        "name": "L’Atelier de Gaztelur",
        "city": "Arcangues",
        "postal_code": "64200",
        "stars": "1"
    },
    {
        "id_restaurant": "15418",
        "name": "Les Loges - Anthony Bonnet",
        "city": "Lyon",
        "postal_code": "69005",
        "stars": "1",
        "image": "https://restaurant.michelin.fr/sites/mtpb2c_fr/files/styles/poi_detail_landscape/public/4_160.jpg?itok=Bc4D8L8d"
    },
    {
        "id_restaurant": "317277",
        "name": "Quinsou",
        "city": "Paris",
        "postal_code": "75006",
        "stars": "1"
    },
    {
        "id_restaurant": "43399",
        "name": "La Grignotière",
        "city": "Raismes",
        "postal_code": "59590",
        "stars": "1",
        "image": "https://restaurant.michelin.fr/sites/mtpb2c_fr/files/styles/poi_detail_landscape/public/6_29.jpg?itok=MLfZ4Ftw"
    },
    {
        "id_restaurant": "9228",
        "name": "Le Baudelaire - Hôtel Le Burgundy Paris",
        "city": "Paris",
        "postal_code": "75001",
        "stars": "1",
        "image": "https://restaurant.michelin.fr/sites/mtpb2c_fr/files/styles/poi_detail_landscape/public/Le%20Baudelaire%20J17_150-Panorama%20copie.jpg?itok=9-jWCxq9"
    },
    {
        "id_restaurant": "2889",
        "name": "La Marande",
        "city": "Montbellet",
        "postal_code": "71260",
        "stars": "1",
        "image": "https://restaurant.michelin.fr/sites/mtpb2c_fr/files/styles/poi_detail_landscape/public/41438_1_1.jpg?itok=JfXusPwd"
    },
    {
        "id_restaurant": "12900",
        "name": "Pierre Orsi",
        "city": "Lyon",
        "postal_code": "69006",
        "stars": "1",
        "image": "https://restaurant.michelin.fr/sites/mtpb2c_fr/files/styles/poi_detail_landscape/public/5LRN-qsbFpaSeEsA.jpg?itok=ecehGVcm"
    },
    {
        "id_restaurant": "78533",
        "name": "Le Quincangrogne",
        "city": "Dampmart",
        "postal_code": "77400",
        "stars": "1",
        "image": "https://restaurant.michelin.fr/sites/mtpb2c_fr/files/styles/poi_detail_landscape/public/tRRH2S1IabJhdz9Q.jpg?itok=7ZkD2ShI"
    },
    {
        "id_restaurant": "7130",
        "name": "Le Clos des Sens",
        "city": "Annecy-le-Vieux",
        "postal_code": "74940",
        "stars": "2",
        "image": "https://restaurant.michelin.fr/sites/mtpb2c_fr/files/styles/poi_detail_landscape/public/Le-Clos-des-Sens-2016_09_21-REPORTAGE-salle-terrasse-5.jpg?itok=YBD-ZjPJ"
    },
    {
        "id_restaurant": "12792",
        "name": "La Côte Saint-Jacques",
        "city": "Joigny",
        "postal_code": "89300",
        "stars": "2",
        "image": "https://restaurant.michelin.fr/sites/mtpb2c_fr/files/styles/poi_detail_landscape/public/1-%20Equipe%20de%20la%20C%C3%B4te%20Saint%20Jacques%40jeanmichellorain-min.jpg?itok=e_8PufQp"
    },
    {
        "id_restaurant": "25985",
        "name": "Copenhague",
        "city": "Paris",
        "postal_code": "75008",
        "stars": "1",
        "image": "https://restaurant.michelin.fr/sites/mtpb2c_fr/files/styles/poi_detail_landscape/public/Copenhague%203.jpg?itok=S0kiMlW7"
    },
    {
        "id_restaurant": "29826",
        "name": "Loiseau des Ducs",
        "city": "Dijon",
        "postal_code": "21000",
        "stars": "1",
        "image": "https://restaurant.michelin.fr/sites/mtpb2c_fr/files/styles/poi_detail_landscape/public/Saint%20Jacques%20Patidou%20Butternut%20et%20Jambon%20Pata%20N%C3%A9gra.jpg?itok=TNK7ypra"
    },
    {
        "id_restaurant": "26460",
        "name": "Ivan Vautier",
        "city": "Caen",
        "postal_code": "14000",
        "stars": "1",
        "image": "https://restaurant.michelin.fr/sites/mtpb2c_fr/files/styles/poi_detail_landscape/public/vNTZO1E7S68plxVw.jpg?itok=79HMZ8td"
    },
    {
        "id_restaurant": "75533",
        "name": "La Tour des Vents",
        "city": "Monbazillac",
        "postal_code": "24240",
        "stars": "1",
        "image": "https://restaurant.michelin.fr/sites/mtpb2c_fr/files/styles/poi_detail_landscape/public/yHRE6VeDcmh62HTQ.jpg?itok=va8njvb8"
    },
    {
        "id_restaurant": "294745",
        "name": "Le Fanal - Pascal Borrell",
        "city": "Banyuls-sur-Mer",
        "postal_code": "66650",
        "stars": "1",
        "image": "https://restaurant.michelin.fr/sites/mtpb2c_fr/files/styles/poi_detail_landscape/public/sOTAi743yyAQirnA.jpg?itok=ZcIPh25B"
    },
    {
        "id_restaurant": "324473",
        "name": "Le Faventia",
        "city": "Tourrettes",
        "postal_code": "83440",
        "stars": "1",
        "image": "https://restaurant.michelin.fr/sites/mtpb2c_fr/files/styles/poi_detail_landscape/public/TyQfCsRT-pi3OXRw.jpg?itok=5PCWSf9S"
    },
    {
        "id_restaurant": "272053",
        "name": "Divellec",
        "city": "Paris",
        "postal_code": "75007",
        "stars": "1"
    },
    {
        "id_restaurant": "3303",
        "name": "Le Relais Bernard Loiseau",
        "city": "Saulieu",
        "postal_code": "21210",
        "stars": "2",
        "image": "https://restaurant.michelin.fr/sites/mtpb2c_fr/files/styles/poi_detail_landscape/public/9_51.jpg?itok=6MUYNb_1"
    },
    {
        "id_restaurant": "23303",
        "name": "La Table de Nans - Auberge le Revestel",
        "city": "La Ciotat",
        "postal_code": "13600",
        "stars": "1",
        "image": "https://restaurant.michelin.fr/sites/mtpb2c_fr/files/styles/poi_detail_landscape/public/znQkWGBXPeBXPpPQ.jpg?itok=e6PqgY-7"
    },
    {
        "id_restaurant": "4977",
        "name": "Le Saint-James - Nicolas Magie",
        "city": "Bouliac",
        "postal_code": "33270",
        "stars": "1",
        "image": "https://restaurant.michelin.fr/sites/mtpb2c_fr/files/styles/poi_detail_landscape/public/13178912_628874113929425_6375026556486534536_n.jpg?itok=jO9ghGr7"
    },
    {
        "id_restaurant": "53038",
        "name": "Le Gabriel - La Réserve Paris",
        "city": "Paris",
        "postal_code": "75008",
        "stars": "2",
        "image": "https://restaurant.michelin.fr/sites/mtpb2c_fr/files/styles/poi_detail_landscape/public/Salle_1.jpg?itok=xNQshrm4"
    },
    {
        "id_restaurant": "1923",
        "name": "Agapé",
        "city": "Paris",
        "postal_code": "75017",
        "stars": "1",
        "image": "https://restaurant.michelin.fr/sites/mtpb2c_fr/files/styles/poi_detail_landscape/public/iISK-1u8sxhxOIPA.jpg?itok=0p1IVlLX"
    },
    {
        "id_restaurant": "5727",
        "name": "Mavrommatis",
        "city": "Paris",
        "postal_code": "75005",
        "stars": "1",
        "image": "https://restaurant.michelin.fr/sites/mtpb2c_fr/files/styles/poi_detail_landscape/public/iagneau-et-dolmades-copie-1024x683.jpg?itok=gnHbr00W"
    },
    {
        "id_restaurant": "306505",
        "name": "Le Pavillon",
        "city": "Le Touquet-Paris-Plage",
        "postal_code": "62520",
        "stars": "1",
        "image": "https://restaurant.michelin.fr/sites/mtpb2c_fr/files/styles/poi_detail_landscape/public/9000_1_0.jpg?itok=BnxB9Z0T"
    },
    {
        "id_restaurant": "2971",
        "name": "Maison Kieny",
        "city": "Riedisheim",
        "postal_code": "68400",
        "stars": "1",
        "image": "https://restaurant.michelin.fr/sites/mtpb2c_fr/files/styles/poi_detail_landscape/public/LxTY2FbSfKqbkTpg.jpg?itok=VPzg11th"
    },
    {
        "id_restaurant": "212971",
        "name": "L'Odas",
        "city": "Rouen",
        "postal_code": "76000",
        "stars": "1",
        "image": "https://restaurant.michelin.fr/sites/mtpb2c_fr/files/styles/poi_detail_landscape/public/CsQr67lI38UXardg.jpg?itok=rskXhEDX"
    },
    {
        "id_restaurant": "687",
        "name": "L'Oustau de Baumanière - Jean André Charial",
        "city": "Les Baux-de-Provence",
        "postal_code": "13520",
        "stars": "2",
        "image": "https://restaurant.michelin.fr/sites/mtpb2c_fr/files/styles/poi_detail_landscape/public/Henk%20aout%202012%20%2846%29-min.JPG?itok=GPl_mzl2"
    },
    {
        "id_restaurant": "28453",
        "name": "Le 1217",
        "city": "Bagnols",
        "postal_code": "69620",
        "stars": "1",
        "image": "https://restaurant.michelin.fr/sites/mtpb2c_fr/files/styles/poi_detail_landscape/public/W5SIihS6SL0UVJoQ.jpg?itok=y4pUdUFp"
    },
    {
        "id_restaurant": "214579",
        "name": "L'Arcane",
        "city": "Paris",
        "postal_code": "75018",
        "stars": "1",
        "image": "https://restaurant.michelin.fr/sites/mtpb2c_fr/files/styles/poi_detail_landscape/public/kSQs6rKAza8q6-4g.jpg?itok=-DHKrhOg"
    },
    {
        "id_restaurant": "60775",
        "name": "La Table du Connétable",
        "city": "Chantilly",
        "postal_code": "60500",
        "stars": "1",
        "image": "https://restaurant.michelin.fr/sites/mtpb2c_fr/files/styles/poi_detail_landscape/public/pTTxqL4SJQAWEx4g.jpg?itok=kyoqHmIS"
    },
    {
        "id_restaurant": "3592",
        "name": "Buerehiesel - Eric Westermann",
        "city": "Strasbourg",
        "postal_code": "67000",
        "stars": "1",
        "image": "https://restaurant.michelin.fr/sites/mtpb2c_fr/files/styles/poi_detail_landscape/public/Buerehiesel-jardin%20d%27hiver%201.jpg?itok=aQ14Ke2M"
    },
    {
        "id_restaurant": "2591",
        "name": "La Table des Merville - Thierry Merville",
        "city": "Castanet-Tolosan",
        "postal_code": "31320",
        "stars": "1",
        "image": "https://restaurant.michelin.fr/sites/mtpb2c_fr/files/styles/poi_detail_landscape/public/2-min-min.jpg?itok=mxyfMWTv"
    },
    {
        "id_restaurant": "785",
        "name": "Lucas Carton - Julien DUMAS",
        "city": "Paris",
        "postal_code": "75008",
        "stars": "1",
        "image": "https://restaurant.michelin.fr/sites/mtpb2c_fr/files/styles/poi_detail_landscape/public/lucas-carton.jpg?itok=bjTbXPy4"
    },
    {
        "id_restaurant": "8976",
        "name": "L'Abeille - Shangri-La Hotel, Paris",
        "city": "Paris",
        "postal_code": "75016",
        "stars": "2",
        "image": "https://restaurant.michelin.fr/sites/mtpb2c_fr/files/styles/poi_detail_landscape/public/_WRR6_0fRp3HioNw.jpg?itok=vlMbuIMt"
    },
    {
        "id_restaurant": "26660",
        "name": "La Vague d'Or",
        "city": "Saint-Tropez",
        "postal_code": "83990",
        "stars": "3",
        "image": "https://restaurant.michelin.fr/sites/mtpb2c_fr/files/styles/poi_detail_landscape/public/X0T_-sDhTHHmDU4g.jpg?itok=LhIFjK7e"
    },
    {
        "id_restaurant": "44361",
        "name": "Auberge au Boeuf",
        "city": "Sessenheim",
        "postal_code": "67770",
        "stars": "1",
        "image": "https://restaurant.michelin.fr/sites/mtpb2c_fr/files/styles/poi_detail_landscape/public/cESXSOZNPRpw2-nw.jpg?itok=nKL3mITu"
    },
    {
        "id_restaurant": "16314",
        "name": "Les Fresques - Château des Vigiers",
        "city": "Monestier",
        "postal_code": "24240",
        "stars": "1",
        "image": "https://restaurant.michelin.fr/sites/mtpb2c_fr/files/styles/poi_detail_landscape/public/DzTpq7nUs5HKqBUg.jpg?itok=bmH7wf7n"
    },
    {
        "id_restaurant": "44000",
        "name": "Logis de la Cadène",
        "city": "Saint-Émilion",
        "postal_code": "33330",
        "stars": "1",
        "image": "https://restaurant.michelin.fr/sites/mtpb2c_fr/files/styles/poi_detail_landscape/public/8iQLKotc0UTas3Wg.jpg?itok=F-cK0Aq-"
    },
    {
        "id_restaurant": "337449",
        "name": "Comice",
        "city": "Paris",
        "postal_code": "75016",
        "stars": "1"
    },
    {
        "id_restaurant": "18271",
        "name": "Le Clair de la Plume",
        "city": "Grignan",
        "postal_code": "26230",
        "stars": "1",
        "image": "https://restaurant.michelin.fr/sites/mtpb2c_fr/files/styles/poi_detail_landscape/public/Le%20Clair%20de%20la%20Plume.jpg?itok=PeRjGxg4"
    },
    {
        "id_restaurant": "6710",
        "name": "Les Rosiers",
        "city": "Biarritz",
        "postal_code": "64200",
        "stars": "1",
        "image": "https://restaurant.michelin.fr/sites/mtpb2c_fr/files/styles/poi_detail_landscape/public/DSC05747.JPG?itok=KqkilzPV"
    },
    {
        "id_restaurant": "6437",
        "name": "Atelier du Peintre",
        "city": "Colmar",
        "postal_code": "68000",
        "stars": "1",
        "image": "https://restaurant.michelin.fr/sites/mtpb2c_fr/files/styles/poi_detail_landscape/public/P4180017.JPG?itok=9AEL40nh"
    },
    {
        "id_restaurant": "8838",
        "name": "Henri et Joseph",
        "city": "Lorient",
        "postal_code": "56100",
        "stars": "1",
        "image": "https://restaurant.michelin.fr/sites/mtpb2c_fr/files/styles/poi_detail_landscape/public/123055_1_1.jpg?itok=R85PkGQI"
    },
    {
        "id_restaurant": "8601",
        "name": "Il Carpaccio - Hôtel Royal Monceau",
        "city": "Paris",
        "postal_code": "75008",
        "stars": "1",
        "image": "https://restaurant.michelin.fr/sites/mtpb2c_fr/files/styles/poi_detail_landscape/public/AsSBqzhRxmLnZ3EQ.jpg?itok=ds0wL4v1"
    },
    {
        "id_restaurant": "69372",
        "name": "Carré des Feuillants - Alain Dutournier",
        "city": "Paris",
        "postal_code": "75001",
        "stars": "2",
        "image": "https://restaurant.michelin.fr/sites/mtpb2c_fr/files/styles/poi_detail_landscape/public/JsQzWxcDmOBN_Zhw.jpg?itok=e2SrQraU"
    },
    {
        "id_restaurant": "5649",
        "name": "La Grand'Vigne - Hôtel Les Sources de Caudalie",
        "city": "Martillac",
        "postal_code": "33650",
        "stars": "2",
        "image": "https://restaurant.michelin.fr/sites/mtpb2c_fr/files/styles/poi_detail_landscape/public/gUTTuw1L-k92QfEw.jpg?itok=uD0z15hC"
    },
    {
        "id_restaurant": "284489",
        "name": "L'Archeste",
        "city": "Paris",
        "postal_code": "75116",
        "stars": "1",
        "image": "https://restaurant.michelin.fr/sites/mtpb2c_fr/files/styles/poi_detail_landscape/public/Image%201.jpg?itok=eqHjfPZV"
    },
    {
        "id_restaurant": "36448",
        "name": "Penati Al Baretto - Alberico Penati",
        "city": "Paris",
        "postal_code": "75008",
        "stars": "1",
        "image": "https://restaurant.michelin.fr/sites/mtpb2c_fr/files/styles/poi_detail_landscape/public/Penati3.jpg?itok=o64Fej49"
    },
    {
        "id_restaurant": "8760",
        "name": "Saturne",
        "city": "Paris",
        "postal_code": "75002",
        "stars": "1"
    },
    {
        "id_restaurant": "35146",
        "name": "L'Atelier de Joël Robuchon Etoile",
        "city": "Paris",
        "postal_code": "75008",
        "stars": "1",
        "image": "https://restaurant.michelin.fr/sites/mtpb2c_fr/files/styles/poi_detail_landscape/public/jgSIa79aYpoWVQ0A.jpg?itok=vCaYw3Ee"
    },
    {
        "id_restaurant": "30143",
        "name": "L'Atelier de Joël Robuchon Saint Germain",
        "city": "Paris",
        "postal_code": "75007",
        "stars": "2",
        "image": "https://restaurant.michelin.fr/sites/mtpb2c_fr/files/styles/poi_detail_landscape/public/44900_1_0.jpg?itok=c__ROQAh"
    },
    {
        "id_restaurant": "10332",
        "name": "Le Refuge des Gourmets",
        "city": "Machilly",
        "postal_code": "74140",
        "stars": "1",
        "image": "https://restaurant.michelin.fr/sites/mtpb2c_fr/files/styles/poi_detail_landscape/public/dessert%20menu%20framboise%202017.jpg?itok=J0rxlA7V"
    },
    {
        "id_restaurant": "2998",
        "name": "Christopher Coutanceau",
        "city": "La Rochelle",
        "postal_code": "17000",
        "stars": "2",
        "image": "https://restaurant.michelin.fr/sites/mtpb2c_fr/files/styles/poi_detail_landscape/public/IMG_0003%20%282%29-min_1.JPG?itok=QFfXHyuX"
    },
    {
        "id_restaurant": "5632",
        "name": "La Licorne Royale",
        "city": "Lyons-la-Forêt",
        "postal_code": "27480",
        "stars": "1",
        "image": "https://restaurant.michelin.fr/sites/mtpb2c_fr/files/styles/poi_detail_landscape/public/nSoMe2gtREmAUy8GFz_y6g.jpg?itok=_wTye0oH"
    },
    {
        "id_restaurant": "2728",
        "name": "L'Orangerie du Château",
        "city": "Blois",
        "postal_code": "41000",
        "stars": "1",
        "image": "https://restaurant.michelin.fr/sites/mtpb2c_fr/files/styles/poi_detail_landscape/public/cpSaWktw6mwHjyYg.jpg?itok=eSVWiA93"
    },
    {
        "id_restaurant": "2714",
        "name": "Auberge des Templiers",
        "city": "Boismorand",
        "postal_code": "45290",
        "stars": "1",
        "image": "https://restaurant.michelin.fr/sites/mtpb2c_fr/files/styles/poi_detail_landscape/public/Auberge%20des%20templiers.jpg?itok=j-SfGH2a"
    },
    {
        "id_restaurant": "7876",
        "name": "Mon Plaisir",
        "city": "Chamesol",
        "postal_code": "25190",
        "stars": "1",
        "image": "https://restaurant.michelin.fr/sites/mtpb2c_fr/files/styles/poi_detail_landscape/public/23290_1_0.jpg?itok=Hz4TVZVV"
    },
    {
        "id_restaurant": "3131",
        "name": "Gordon Ramsay au Trianon",
        "city": "Versailles",
        "postal_code": "78000",
        "stars": "1",
        "image": "https://restaurant.michelin.fr/sites/mtpb2c_fr/files/styles/poi_detail_landscape/public/IeQ6GxfzwX2hypaw.jpg?itok=hPYVDkSN"
    },
    {
        "id_restaurant": "19211",
        "name": "Le 1741",
        "city": "Strasbourg",
        "postal_code": "67000",
        "stars": "1",
        "image": "https://restaurant.michelin.fr/sites/mtpb2c_fr/files/styles/poi_detail_landscape/public/Plat-006.jpg?itok=_BmU20XN"
    },
    {
        "id_restaurant": "26352",
        "name": "Le Moulin de l'Abbaye",
        "city": "Brantôme",
        "postal_code": "24310",
        "stars": "1",
        "image": "https://restaurant.michelin.fr/sites/mtpb2c_fr/files/styles/poi_detail_landscape/public/VxQAeD1u55-WULVg.jpg?itok=F1oTYrVg"
    },
    {
        "id_restaurant": "1009",
        "name": "Domaine des Séquoias",
        "city": "Ruy",
        "postal_code": "38300",
        "stars": "1",
        "image": "https://restaurant.michelin.fr/sites/mtpb2c_fr/files/styles/poi_detail_landscape/public/Domaine-sequoia.jpg?itok=mFGDvxkf"
    },
    {
        "id_restaurant": "63173",
        "name": "Fontevraud  Le Restaurant",
        "city": "Fontevraud-l'Abbaye",
        "postal_code": "49590",
        "stars": "1",
        "image": "https://restaurant.michelin.fr/sites/mtpb2c_fr/files/styles/poi_detail_landscape/public/Fontevraud%20Le%20Restaurant.jpg?itok=ApCpbqfb"
    },
    {
        "id_restaurant": "60418",
        "name": "Apicius",
        "city": "Paris",
        "postal_code": "75008",
        "stars": "1",
        "image": "https://restaurant.michelin.fr/sites/mtpb2c_fr/files/styles/poi_detail_landscape/public/Apicius5.jpg?itok=Od6HKrWq"
    },
    {
        "id_restaurant": "2740",
        "name": "Le Manoir du Lys",
        "city": "Bagnoles-de-l'Orne",
        "postal_code": "61140",
        "stars": "1",
        "image": "https://restaurant.michelin.fr/sites/mtpb2c_fr/files/styles/poi_detail_landscape/public/10110_1_0.jpg?itok=-ywBkO7x"
    },
    {
        "id_restaurant": "25896",
        "name": "Benoit - Alain Ducasse",
        "city": "Paris",
        "postal_code": "75004",
        "stars": "1",
        "image": "https://restaurant.michelin.fr/sites/mtpb2c_fr/files/styles/poi_detail_landscape/public/5826_1_0.jpg?itok=wbqBWKt0"
    },
    {
        "id_restaurant": "405",
        "name": "Maison Rostang",
        "city": "Paris",
        "postal_code": "75017",
        "stars": "2",
        "image": "https://restaurant.michelin.fr/sites/mtpb2c_fr/files/styles/poi_detail_landscape/public/Cuisses%20de%20grenouille%20en%20habit%20vert%20ail%20doux%20et%20artichauts%20r%C3%B4tis%20coulis%20de%20cresson%20acidul%C3%A93-MaisonRostang-JulieLimont-HD.jpg?itok=9et9Iu76"
    },
    {
        "id_restaurant": "5756",
        "name": "Palm Beach",
        "city": "Ajaccio",
        "postal_code": "20000",
        "stars": "1",
        "image": "https://restaurant.michelin.fr/sites/mtpb2c_fr/files/styles/poi_detail_landscape/public/tYTkGQowcHejrZbA.jpg?itok=uU_DDzhR"
    },
    {
        "id_restaurant": "25701",
        "name": "Garance",
        "city": "Paris",
        "postal_code": "75007",
        "stars": "1"
    },
    {
        "id_restaurant": "689",
        "name": "Le Prieuré",
        "city": "Villeneuve-lès-Avignon",
        "postal_code": "30400",
        "stars": "1",
        "image": "https://restaurant.michelin.fr/sites/mtpb2c_fr/files/styles/poi_detail_landscape/public/Prieur%C3%A9%202.jpg?itok=lRO5uMVc"
    },
    {
        "id_restaurant": "5305",
        "name": "L'Auberge Basque",
        "city": "Saint-Pée-sur-Nivelle",
        "postal_code": "64310",
        "stars": "1",
        "image": "https://restaurant.michelin.fr/sites/mtpb2c_fr/files/styles/poi_logo_landscape/public/UMRoGMiqCnfn6k9A.jpg?itok=M5Ufzk1a"
    },
    {
        "id_restaurant": "4697",
        "name": "Les Terrasses de Lyon",
        "city": "Lyon",
        "postal_code": "69005",
        "stars": "1",
        "image": "https://restaurant.michelin.fr/sites/mtpb2c_fr/files/styles/poi_detail_landscape/public/ZISXSqiTDywm3t_w.jpg?itok=5QN2We1D"
    },
    {
        "id_restaurant": "205737",
        "name": "Le Violon d'Ingres - Christian Constant",
        "city": "Paris",
        "postal_code": "75007",
        "stars": "1",
        "image": "https://restaurant.michelin.fr/sites/mtpb2c_fr/files/styles/poi_detail_landscape/public/4_176.jpg?itok=nz36hiqD"
    },
    {
        "id_restaurant": "344379",
        "name": "Astrance",
        "city": "Paris",
        "postal_code": "75016",
        "stars": "3",
        "image": "https://restaurant.michelin.fr/sites/mtpb2c_fr/files/styles/poi_detail_landscape/public/BeSd65S7vQNNrgAg.jpg?itok=9l4xU_N_"
    },
    {
        "id_restaurant": "18939",
        "name": "Le Bistro des Saveurs",
        "city": "Obernai",
        "postal_code": "67210",
        "stars": "1",
        "image": "https://restaurant.michelin.fr/sites/mtpb2c_fr/files/styles/poi_detail_landscape/public/HiTmWmjV7PREAaCQ.jpg?itok=zS6izOwL"
    },
    {
        "id_restaurant": "9759",
        "name": "Le Carrousel",
        "city": "Maringues",
        "postal_code": "63350",
        "stars": "1",
        "image": "https://restaurant.michelin.fr/sites/mtpb2c_fr/files/styles/poi_detail_landscape/public/Le-Carrousel.jpg?itok=zWrCJjrd"
    },
    {
        "id_restaurant": "3485",
        "name": "Manoir de la Boulaie - Laurent Saudeau",
        "city": "Haute-Goulaine",
        "postal_code": "44115",
        "stars": "2",
        "image": "https://restaurant.michelin.fr/sites/mtpb2c_fr/files/styles/poi_detail_landscape/public/hnSASEwSQa1j42gA.jpg?itok=MsoEvPAR"
    },
    {
        "id_restaurant": "38024",
        "name": "La Nouvelle Auberge",
        "city": "Wihr-au-Val",
        "postal_code": "68230",
        "stars": "1",
        "image": "https://restaurant.michelin.fr/sites/mtpb2c_fr/files/styles/poi_detail_landscape/public/q_Qyyelmv00gVNKw.jpg?itok=KY7BywBr"
    },
    {
        "id_restaurant": "13311",
        "name": "Château de Mercuès",
        "city": "Mercuès",
        "postal_code": "46090",
        "stars": "1",
        "image": "https://restaurant.michelin.fr/sites/mtpb2c_fr/files/styles/poi_detail_landscape/public/gVRoCCTQXHeUnShw.jpg?itok=X-pQL5LU"
    },
    {
        "id_restaurant": "16982",
        "name": "Château de Courban & Spa",
        "city": "Courban",
        "postal_code": "21520",
        "stars": "1",
        "image": "https://restaurant.michelin.fr/sites/mtpb2c_fr/files/styles/poi_detail_landscape/public/prRfK7JD1V6u13Iw.jpg?itok=y1g1XDZb"
    },
    {
        "id_restaurant": "3521",
        "name": "Le Candille - Le Mas Candille",
        "city": "Mougins",
        "postal_code": "06250",
        "stars": "1",
        "image": "https://restaurant.michelin.fr/sites/mtpb2c_fr/files/styles/poi_detail_landscape/public/J.J%20Giordan%20www.photos-hdr.com%20JJ1D0259_60_61_62_63Balanced_preview.jpeg?itok=luMM4idt"
    },
    {
        "id_restaurant": "317587",
        "name": "Pertinence",
        "city": "Paris",
        "postal_code": "75007",
        "stars": "1"
    },
    {
        "id_restaurant": "46990",
        "name": "RACKHAM",
        "city": "Roscoff",
        "postal_code": "29680",
        "stars": "1",
        "image": "https://restaurant.michelin.fr/sites/mtpb2c_fr/files/styles/poi_detail_landscape/public/9FTKCK7Mi2xOTeUg.jpg?itok=PX8NLcCv"
    },
    {
        "id_restaurant": "60777",
        "name": "1912",
        "city": "Trouville-sur-Mer",
        "postal_code": "14360",
        "stars": "1",
        "image": "https://restaurant.michelin.fr/sites/mtpb2c_fr/files/styles/poi_detail_landscape/public/PxRoeeguDogE01gA.jpg?itok=folsjcFF"
    },
    {
        "id_restaurant": "15413",
        "name": "Les Trois Dômes - Christian Lherm",
        "city": "Lyon",
        "postal_code": "69002",
        "stars": "1"
    },
    {
        "id_restaurant": "206163",
        "name": "Julien Binz",
        "city": "Ammerschwihr",
        "postal_code": "68770",
        "stars": "1",
        "image": "https://restaurant.michelin.fr/sites/mtpb2c_fr/files/styles/poi_detail_landscape/public/3dQReUJ4FfCArhJQ.jpg?itok=C-WYLeJQ"
    },
    {
        "id_restaurant": "73961",
        "name": "Le George - Four Seasons Hôtel George V",
        "city": "Paris",
        "postal_code": "75008",
        "stars": "1",
        "image": "https://restaurant.michelin.fr/sites/mtpb2c_fr/files/styles/poi_detail_landscape/public/Le%20George.jpg?itok=by-ny7fE"
    },
    {
        "id_restaurant": "77613",
        "name": "Le Meurin",
        "city": "Busnes",
        "postal_code": "62350",
        "stars": "2",
        "image": "https://restaurant.michelin.fr/sites/mtpb2c_fr/files/styles/poi_detail_landscape/public/6_103.jpg?itok=JpWhqJ-p"
    },
    {
        "id_restaurant": "209193",
        "name": "Ed.Em",
        "city": "Chassagne-Montrachet",
        "postal_code": "21190",
        "stars": "1",
        "image": "https://restaurant.michelin.fr/sites/mtpb2c_fr/files/styles/poi_detail_landscape/public/Ed%20Em%202016-42.jpg?itok=Aan8sjJM"
    },
    {
        "id_restaurant": "5603",
        "name": "JY'S",
        "city": "Colmar",
        "postal_code": "68000",
        "stars": "2",
        "image": "https://restaurant.michelin.fr/sites/mtpb2c_fr/files/styles/poi_detail_landscape/public/neSjqRQNH368J02w.jpg?itok=5UpVEC2n"
    },
    {
        "id_restaurant": "297223",
        "name": "Leroy's Restaurant",
        "city": "Paris",
        "postal_code": "75006",
        "stars": "1",
        "image": "https://restaurant.michelin.fr/sites/mtpb2c_fr/files/styles/poi_detail_landscape/public/HTTNiiOHKjZgVb4w.jpg?itok=pm-gU__2"
    },
    {
        "id_restaurant": "6482",
        "name": "Le Vieux Pont",
        "city": "Belcastel",
        "postal_code": "12390",
        "stars": "1",
        "image": "https://restaurant.michelin.fr/sites/mtpb2c_fr/files/styles/poi_detail_landscape/public/959_1_0.jpg?itok=gqdP-0r5"
    },
    {
        "id_restaurant": "618",
        "name": "Le Dalí - Hôtel le Meurice - Alain Ducasse",
        "city": "Paris",
        "postal_code": "75001",
        "stars": "2",
        "image": "https://restaurant.michelin.fr/sites/mtpb2c_fr/files/styles/poi_detail_landscape/public/le%20meurice.jpg?itok=MjM2Fywb"
    },
    {
        "id_restaurant": "323145",
        "name": "Le Passe Temps",
        "city": "Lyon",
        "postal_code": "69006",
        "stars": "1",
        "image": "https://restaurant.michelin.fr/sites/mtpb2c_fr/files/styles/poi_detail_landscape/public/IMG_1164-h1024.JPG?itok=c84SpIZ_"
    },
    {
        "id_restaurant": "30315",
        "name": "Les Climats",
        "city": "Paris",
        "postal_code": "75007",
        "stars": "1",
        "image": "https://restaurant.michelin.fr/sites/mtpb2c_fr/files/styles/poi_detail_landscape/public/1_327.jpg?itok=X7pNxkx3"
    },
    {
        "id_restaurant": "25",
        "name": "Loiseau rive Gauche",
        "city": "Paris",
        "postal_code": "75007",
        "stars": "1",
        "image": "https://restaurant.michelin.fr/sites/mtpb2c_fr/files/styles/poi_detail_landscape/public/R7Sam79TvoHGPQFQ.jpg?itok=aqtJhbVt"
    },
    {
        "id_restaurant": "4988",
        "name": "Le Jardin des Remparts",
        "city": "Beaune",
        "postal_code": "21200",
        "stars": "1",
        "image": "https://restaurant.michelin.fr/sites/mtpb2c_fr/files/styles/poi_detail_landscape/public/Le%20Jardin%20des%20Remparts_Beaune_1.jpg?itok=o3OuAyDt"
    },
    {
        "id_restaurant": "46721",
        "name": "Neige d'été",
        "city": "Paris",
        "postal_code": "75015",
        "stars": "1",
        "image": "https://restaurant.michelin.fr/sites/mtpb2c_fr/files/styles/poi_detail_landscape/public/neige-d%27ete-paris.jpg?itok=QyDhP7vt"
    },
    {
        "id_restaurant": "313905",
        "name": "Auberge le Prieuré",
        "city": "Moirax",
        "postal_code": "47310",
        "stars": "1"
    },
    {
        "id_restaurant": "8656",
        "name": "Le Petit Pergolèse",
        "city": "Paris",
        "postal_code": "75116",
        "stars": "1",
        "image": "https://restaurant.michelin.fr/sites/mtpb2c_fr/files/styles/poi_detail_landscape/public/QATIaDDLKysfGuxg.jpg?itok=aDzAbx_Z"
    },
    {
        "id_restaurant": "4727",
        "name": "Le Pergolèse - Stéphane Gaborieau",
        "city": "Paris",
        "postal_code": "75116",
        "stars": "1",
        "image": "https://restaurant.michelin.fr/sites/mtpb2c_fr/files/styles/poi_detail_landscape/public/QATIaDDLKysfGuxg.jpg?itok=aDzAbx_Z"
    },
    {
        "id_restaurant": "23255",
        "name": "Auberge de la Tour",
        "city": "Marcolès",
        "postal_code": "15220",
        "stars": "1",
        "image": "https://restaurant.michelin.fr/sites/mtpb2c_fr/files/styles/poi_detail_landscape/public/L%27Auberge%20de%20la%20Tour.jpg?itok=qNfSfG2X"
    },
    {
        "id_restaurant": "387",
        "name": "Le Mascaret",
        "city": "Blainville-sur-Mer",
        "postal_code": "50560",
        "stars": "1",
        "image": "https://restaurant.michelin.fr/sites/mtpb2c_fr/files/styles/poi_detail_landscape/public/mascaret.jpg?itok=xSX_weCk"
    },
    {
        "id_restaurant": "26327",
        "name": "Elsa - Hôtel Monte-Carlo Beach",
        "city": "Roquebrune-Cap-Martin",
        "postal_code": "06190",
        "stars": "1",
        "image": "https://restaurant.michelin.fr/sites/mtpb2c_fr/files/styles/poi_detail_landscape/public/TbQrqRFl_-KCmPMw.jpg?itok=GwDimZFh"
    },
    {
        "id_restaurant": "713",
        "name": "L'Arôme",
        "city": "Paris",
        "postal_code": "75008",
        "stars": "1",
        "image": "https://restaurant.michelin.fr/sites/mtpb2c_fr/files/styles/poi_detail_landscape/public/DSC_2229A.jpg?itok=Xw9xL3hv"
    },
    {
        "id_restaurant": "5487",
        "name": "Château de Mirambeau",
        "city": "Mirambeau",
        "postal_code": "17150",
        "stars": "1",
        "image": "https://restaurant.michelin.fr/sites/mtpb2c_fr/files/styles/poi_detail_landscape/public/mirambeau-restaurant-003.jpg?itok=_utHmbu2"
    },
    {
        "id_restaurant": "22878",
        "name": "Domaine de Clairefontaine",
        "city": "Chonas-l'Amballan",
        "postal_code": "38121",
        "stars": "1",
        "image": "https://restaurant.michelin.fr/sites/mtpb2c_fr/files/styles/poi_detail_landscape/public/THT0KYcX7j4xkMLQ.jpg?itok=ftZBiEAE"
    },
    {
        "id_restaurant": "203823",
        "name": "La Passagère",
        "city": "Antibes",
        "postal_code": "06160",
        "stars": "1",
        "image": "https://restaurant.michelin.fr/sites/mtpb2c_fr/files/styles/poi_detail_landscape/public/10%202017%2003%20PLATS%20BR.JPG?itok=YcFpCvte"
    },
    {
        "id_restaurant": "3401",
        "name": "Le Bec Au Cauchois Restaurant Pierre Caillet",
        "city": "Valmont",
        "postal_code": "76540",
        "stars": "1",
        "image": "https://restaurant.michelin.fr/sites/mtpb2c_fr/files/styles/poi_detail_landscape/public/20170625_173730-min.jpg?itok=rv6_u0eq"
    },
    {
        "id_restaurant": "21741",
        "name": "Restaurant du Palais Royal",
        "city": "Paris",
        "postal_code": "75001",
        "stars": "1",
        "image": "https://restaurant.michelin.fr/sites/mtpb2c_fr/files/styles/poi_detail_landscape/public/Restaurant%20Palais%20Royal%20Terrasse%202016%203%20-%20Yann%20Audic.jpg?itok=fIRuiKeS"
    },
    {
        "id_restaurant": "276775",
        "name": "Garopapilles",
        "city": "Bordeaux",
        "postal_code": "33000",
        "stars": "1"
    },
    {
        "id_restaurant": "2310",
        "name": "Auberge du Cheval Blanc",
        "city": "Lembach",
        "postal_code": "67510",
        "stars": "2",
        "image": "https://restaurant.michelin.fr/sites/mtpb2c_fr/files/styles/poi_detail_landscape/public/Auberge%20du%20Cheval%20Blanc_0.jpg?itok=4UJGviNk"
    },
    {
        "id_restaurant": "58408",
        "name": "La Table du 11",
        "city": "Versailles",
        "postal_code": "78000",
        "stars": "1",
        "image": "https://restaurant.michelin.fr/sites/mtpb2c_fr/files/styles/poi_detail_landscape/public/La%20Table%20du%2011%20-%202.jpg?itok=8casYbQx"
    },
    {
        "id_restaurant": "24998",
        "name": "Le Restaurant Des Rois",
        "city": "Beaulieu-sur-Mer",
        "postal_code": "06310",
        "stars": "1",
        "image": "https://restaurant.michelin.fr/sites/mtpb2c_fr/files/styles/poi_detail_landscape/public/49TyGqFphvsw031w.jpg?itok=9fatm9nd"
    },
    {
        "id_restaurant": "324425",
        "name": "Le Neuvième Art",
        "city": "Lyon",
        "postal_code": "69006",
        "stars": "2"
    },
    {
        "id_restaurant": "46885",
        "name": "Le Gambetta",
        "city": "Saumur",
        "postal_code": "49400",
        "stars": "1",
        "image": "https://restaurant.michelin.fr/sites/mtpb2c_fr/files/styles/poi_detail_landscape/public/F9TEyU50ssMqbQxg.jpg?itok=hL_AQ1Bj"
    },
    {
        "id_restaurant": "2698",
        "name": "Jean Luc Tartarin",
        "city": "Le Havre",
        "postal_code": "76600",
        "stars": "2",
        "image": "https://restaurant.michelin.fr/sites/mtpb2c_fr/files/styles/poi_detail_landscape/public/MnTWmUsPKxur8yGA.jpg?itok=UtxKcFRr"
    },
    {
        "id_restaurant": "28557",
        "name": "La Grange de Belle Eglise",
        "city": "Belle-Église",
        "postal_code": "60540",
        "stars": "1",
        "image": "https://restaurant.michelin.fr/sites/mtpb2c_fr/files/styles/poi_detail_landscape/public/jWTVu4r2Xm-5qaHA.jpg?itok=go6zi1tT"
    },
    {
        "id_restaurant": "74933",
        "name": "Le Clarence",
        "city": "Paris",
        "postal_code": "75008",
        "stars": "2",
        "image": "https://restaurant.michelin.fr/sites/mtpb2c_fr/files/styles/poi_detail_landscape/public/16640588_1437410429610518_3495360118479252504_n.jpg?itok=wsQ4mxor"
    },
    {
        "id_restaurant": "366063",
        "name": "Château Cordeillan Bages",
        "city": "Pauillac",
        "postal_code": "33250",
        "stars": "1",
        "image": "https://restaurant.michelin.fr/sites/mtpb2c_fr/files/styles/poi_detail_landscape/public/ASPERGE%20verte%20en%20blanc-manger%20_%20Blanche%20a%20la%20Maltaise%20_%20Julien%20Lefebvre%20_%20CordeillanBages.jpg?itok=ln8O1jzV"
    },
    {
        "id_restaurant": "324443",
        "name": "Maison Clovis",
        "city": "Lyon",
        "postal_code": "69006",
        "stars": "1",
        "image": "https://restaurant.michelin.fr/sites/mtpb2c_fr/files/styles/poi_detail_landscape/public/QSRWSv7f5USpKnjg.jpg?itok=g1uGupu2"
    },
    {
        "id_restaurant": "33786",
        "name": "Le 1947 - Cheval Blanc Courchevel",
        "city": "La Perrière",
        "postal_code": "73120",
        "stars": "3",
        "image": "https://restaurant.michelin.fr/sites/mtpb2c_fr/files/styles/poi_detail_landscape/public/HjQVGAeeRveT337g.jpg?itok=AEBLLYzn"
    },
    {
        "id_restaurant": "2819",
        "name": "Les Hautes Roches",
        "city": "Rochecorbon",
        "postal_code": "37210",
        "stars": "1",
        "image": "https://restaurant.michelin.fr/sites/mtpb2c_fr/files/styles/poi_detail_landscape/public/OHSDybfUWCLKzFtA.jpg?itok=0Jc6nutL"
    },
    {
        "id_restaurant": "8933",
        "name": "Les Clefs d'Argent",
        "city": "Mont-de-Marsan",
        "postal_code": "40000",
        "stars": "1",
        "image": "https://restaurant.michelin.fr/sites/mtpb2c_fr/files/styles/poi_detail_landscape/public/121265_3_0.jpg?itok=PZxkYmKE"
    },
    {
        "id_restaurant": "2970",
        "name": "La Renaissance",
        "city": "Argentan",
        "postal_code": "61200",
        "stars": "1",
        "image": "https://restaurant.michelin.fr/sites/mtpb2c_fr/files/styles/poi_detail_landscape/public/fdQVyA50khCJXa1g.jpg?itok=oSb8Lwuv"
    },
    {
        "id_restaurant": "26112",
        "name": "Le 39V Paris - Frédéric Vardon",
        "city": "Paris",
        "postal_code": "75008",
        "stars": "1",
        "image": "https://restaurant.michelin.fr/sites/mtpb2c_fr/files/styles/poi_detail_landscape/public/Le-39v_Paris_1.jpg?itok=Gj_PVDAU"
    },
    {
        "id_restaurant": "2876",
        "name": "Le Relais de la Poste",
        "city": "La Wantzenau",
        "postal_code": "67610",
        "stars": "1",
        "image": "https://restaurant.michelin.fr/sites/mtpb2c_fr/files/styles/poi_detail_landscape/public/Saint%20Pierre%20homard%20Breton.jpg?itok=5kWwpti7"
    },
    {
        "id_restaurant": "378",
        "name": "Ithurria",
        "city": "Ainhoa",
        "postal_code": "64250",
        "stars": "1",
        "image": "https://restaurant.michelin.fr/sites/mtpb2c_fr/files/styles/poi_detail_landscape/public/qqRry9ZLZ6AVBVEQ.jpg?itok=m6aejUZq"
    },
    {
        "id_restaurant": "10382",
        "name": "Le Strasbourg",
        "city": "Bitche",
        "postal_code": "57230",
        "stars": "1",
        "image": "https://restaurant.michelin.fr/sites/mtpb2c_fr/files/styles/poi_detail_landscape/public/_LThSzXsVwVd4s7Q.jpg?itok=w-CdeWoP"
    },
    {
        "id_restaurant": "326081",
        "name": "L'Écrin",
        "city": "Paris",
        "postal_code": "75008",
        "stars": "1",
        "image": "https://restaurant.michelin.fr/sites/mtpb2c_fr/files/styles/poi_detail_landscape/public/L%27Ecrin-Paris.jpg?itok=XCuQfxre"
    },
    {
        "id_restaurant": "327881",
        "name": "La Matelote",
        "city": "Boulogne-sur-Mer",
        "postal_code": "62200",
        "stars": "1",
        "image": "https://restaurant.michelin.fr/sites/mtpb2c_fr/files/styles/poi_detail_landscape/public/La%20Matelote%20Boulogne%20sur%20mer%20-%20AVRIL%202017%20%281%29.jpg?itok=VGlMWA3k"
    },
    {
        "id_restaurant": "73740",
        "name": "La Rotonde - Domaine le Lyon Vert",
        "city": "La Tour-de-Salvagny",
        "postal_code": "69890",
        "stars": "1",
        "image": "https://restaurant.michelin.fr/sites/mtpb2c_fr/files/styles/poi_detail_landscape/public/0048CMJN.jpg?itok=aIW271kG"
    },
    {
        "id_restaurant": "21095",
        "name": "Jérémy Galvan Restaurant",
        "city": "Lyon",
        "postal_code": "69005",
        "stars": "1",
        "image": "https://restaurant.michelin.fr/sites/mtpb2c_fr/files/styles/poi_detail_landscape/public/DSC_0614.JPG?itok=WuGT-MxM"
    },
    {
        "id_restaurant": "5020",
        "name": "La Fourchette du Printemps - Nicolas Mouton",
        "city": "Paris",
        "postal_code": "75017",
        "stars": "1",
        "image": "https://restaurant.michelin.fr/sites/mtpb2c_fr/files/styles/poi_detail_landscape/public/rIQMW70WylTJR3HQ.jpg?itok=6WrqAgCM"
    },
    {
        "id_restaurant": "5623",
        "name": "Le Corot - Hôtel Les Étangs de Corot",
        "city": "Ville-d'Avray",
        "postal_code": "92410",
        "stars": "1",
        "image": "https://restaurant.michelin.fr/sites/mtpb2c_fr/files/styles/poi_detail_landscape/public/zqSGegIK6y9y143g.jpg?itok=ydcXNvkb"
    },
    {
        "id_restaurant": "8719",
        "name": "Ô Saveurs",
        "city": "Rouffiac-Tolosan",
        "postal_code": "31180",
        "stars": "1",
        "image": "https://restaurant.michelin.fr/sites/mtpb2c_fr/files/styles/poi_detail_landscape/public/0KRCyKS4VEYRgARw.jpg?itok=qNw-dlwk"
    },
    {
        "id_restaurant": "23454",
        "name": "Helen",
        "city": "Paris",
        "postal_code": "75008",
        "stars": "1",
        "image": "https://restaurant.michelin.fr/sites/mtpb2c_fr/files/styles/poi_detail_landscape/public/a3SimEAAJf7AjQIw.jpg?itok=yPZHWrUz"
    },
    {
        "id_restaurant": "77134",
        "name": "Mickaël Féval",
        "city": "Aix-en-Provence",
        "postal_code": "13100",
        "stars": "1"
    },
    {
        "id_restaurant": "291337",
        "name": "Epicure - Le Bristol Paris",
        "city": "Paris",
        "postal_code": "75008",
        "stars": "3",
        "image": "https://restaurant.michelin.fr/sites/mtpb2c_fr/files/styles/poi_detail_landscape/public/GISKO0FGRwvOH4RQ.jpg?itok=K61zYSgI"
    },
    {
        "id_restaurant": "32118",
        "name": "Le Musigny",
        "city": "Valenciennes",
        "postal_code": "59300",
        "stars": "1",
        "image": "https://restaurant.michelin.fr/sites/mtpb2c_fr/files/styles/poi_detail_landscape/public/9eJPHkhYTUS8UG3qj6iI6w.jpg?itok=oyEFS0_g"
    },
    {
        "id_restaurant": "122",
        "name": "La Grande Cascade - Frédéric Robert",
        "city": "Paris",
        "postal_code": "75016",
        "stars": "1",
        "image": "https://restaurant.michelin.fr/sites/mtpb2c_fr/files/styles/poi_detail_landscape/public/2YRLO_xohfHn9mtw.jpg?itok=Tg8B3oUX"
    },
    {
        "id_restaurant": "38154",
        "name": "L'Aromate",
        "city": "Nice",
        "postal_code": "06000",
        "stars": "1"
    },
    {
        "id_restaurant": "7135",
        "name": "Les Trois Rochers - La Villa Tri Men",
        "city": "Combrit",
        "postal_code": "29120",
        "stars": "1",
        "image": "https://restaurant.michelin.fr/sites/mtpb2c_fr/files/styles/poi_detail_landscape/public/Exterieur---079-compressor.jpg?itok=XtvUKd4Y"
    },
    {
        "id_restaurant": "4546",
        "name": "Auberge des Saints Pères",
        "city": "Aulnay-sous-Bois",
        "postal_code": "93600",
        "stars": "1",
        "image": "https://restaurant.michelin.fr/sites/mtpb2c_fr/files/styles/poi_detail_landscape/public/kPRgefQmNywRqtFQ.jpg?itok=dsUmW_4M"
    },
    {
        "id_restaurant": "79692",
        "name": "ASSA",
        "city": "Blois",
        "postal_code": "41000",
        "stars": "1",
        "image": "https://restaurant.michelin.fr/sites/mtpb2c_fr/files/styles/poi_detail_landscape/public/ixSeSgqo29r79SQg.jpg?itok=wr5g3lre"
    },
    {
        "id_restaurant": "221",
        "name": "Le France",
        "city": "Villers-le-Lac",
        "postal_code": "25130",
        "stars": "1",
        "image": "https://restaurant.michelin.fr/sites/mtpb2c_fr/files/styles/poi_detail_landscape/public/1_261.jpg?itok=jvks752m"
    },
    {
        "id_restaurant": "347931",
        "name": "Sept",
        "city": "Toulouse",
        "postal_code": "31000",
        "stars": "1",
        "image": "https://restaurant.michelin.fr/sites/mtpb2c_fr/files/styles/poi_detail_landscape/public/GkQ9KdfAZbE3YbBQ.jpg?itok=vz9wU-Dt"
    },
    {
        "id_restaurant": "3507",
        "name": "Hostellerie de Levernois : Le Gastronomique",
        "city": "Levernois",
        "postal_code": "21200",
        "stars": "1",
        "image": "https://restaurant.michelin.fr/sites/mtpb2c_fr/files/styles/poi_detail_landscape/public/1200x800%20levernois.jpg?itok=sN_jsAkc"
    },
    {
        "id_restaurant": "22504",
        "name": "L'Epuisette",
        "city": "Marseille",
        "postal_code": "13007",
        "stars": "1",
        "image": "https://restaurant.michelin.fr/sites/mtpb2c_fr/files/styles/poi_detail_landscape/public/3ESQmgZiC7BYmA8A.jpg?itok=Qozr5Htj"
    },
    {
        "id_restaurant": "202436",
        "name": "Le Chateaubriand",
        "city": "Paris",
        "postal_code": "75011",
        "stars": "1"
    },
    {
        "id_restaurant": "301377",
        "name": "Le Chantecler - Hôtel Negresco",
        "city": "Nice",
        "postal_code": "06000",
        "stars": "2",
        "image": "https://restaurant.michelin.fr/sites/mtpb2c_fr/files/styles/poi_detail_landscape/public/Dos%20de%20chevreil%20aux%20marrons%20de%20Berre-les-Alpes-min.jpg?itok=L9StYUIO"
    }
]